NORAD_CAT_ID,OBJECT_NAME,OBJECT_TYPE,EPOCH,MEAN_MOTION,ECCENTRICITY,INCLINATION,RA_OF_ASC_NODE,ARG_OF_PERICENTER,MEAN_ANOMALY,BSTAR,MEAN_MOTION_DOT,MEAN_MOTION_DDOT,TLE_LINE0,TLE_LINE1,TLE_LINE2,SEMIMAJOR_AXIS,PERIOD,APOGEE,PERIGEE,DECAYED
56484.0,STARLINK-6221,PAYLOAD,2024-04-08 23:52:02,14.9833312,0.0003017,69.9986,88.5592,266.4314,93.65,-2.7863e-05,-4.25e-06,0.0,0 STARLINK-6221,1 56484U 23064AN  24099.99447814 -.00000425  00000-0 -27863-4 0  9995,2 56484  69.9986  88.5592 0003017 266.4314  93.6500 14.98333120 50934,6950.183,96.107,574.145,569.951,0.0
56484.0,STARLINK-6221,PAYLOAD,2024-04-09 09:28:50,14.98357817,0.0002762,69.999,87.5498,261.2889,98.7957,-0.00045982,-5.579e-05,0.0,0 STARLINK-6221,1 56484U 23064AN  24100.39503143 -.00005579  00000-0 -45982-3 0  9996,2 56484  69.9990  87.5498 0002762 261.2889  98.7957 14.98357817 51357,6950.107,96.105,573.891,570.052,0.0
56484.0,STARLINK-6221,PAYLOAD,2024-04-09 15:53:23,14.98339462,0.0003024,69.9989,86.8762,266.6499,93.4315,-0.00017433,-2.173e-05,0.0,0 STARLINK-6221,1 56484U 23064AN  24100.66207584 -.00002173  00000-0 -17433-3 0  9993,2 56484  69.9989  86.8762 0003024 266.6499  93.4315 14.98339462 51399,6950.164,96.106,574.13,569.927,0.0
56484.0,STARLINK-6221,PAYLOAD,2024-04-09 22:17:55,14.98331607,0.000297,69.9988,86.2027,267.7336,92.3483,-7.3295e-06,-1.8e-06,0.0,0 STARLINK-6221,1 56484U 23064AN  24100.92911669 -.00000180  00000-0 -73295-5 0  9994,2 56484  69.9988  86.2027 0002970 267.7336  92.3483 14.98331607 51079,6950.188,96.107,574.117,569.989,0.0
56484.0,STARLINK-6221,PAYLOAD,2024-04-10 09:30:52,14.9833233,0.0002952,69.9989,85.0243,267.7164,92.3657,3.1317e-06,-5.6e-07,0.0,0 STARLINK-6221,1 56484U 23064AN  24101.39643525 -.00000056  00000-0  31317-5 0  9999,2 56484  69.9989  85.0243 0002952 267.7164  92.3657 14.98332330 51141,6950.186,96.107,574.102,569.999,0.0
56484.0,STARLINK-6221,PAYLOAD,2024-04-10 15:55:24,14.98330193,0.0002943,69.999,84.3509,268.5493,91.5329,-1.5135e-05,-2.74e-06,0.0,0 STARLINK-6221,1 56484U 23064AN  24101.66347683 -.00000274  00000-0 -15135-4 0  9997,2 56484  69.9990  84.3509 0002943 268.5493  91.5329 14.98330193 51540,6950.192,96.107,574.103,570.012,0.0
56484.0,STARLINK-6221,PAYLOAD,2024-04-11 09:32:53,14.98328907,0.0002905,69.999,82.4993,269.4469,90.6357,-5.8142e-06,-1.62e-06,0.0,0 STARLINK-6221,1 56484U 23064AN  24102.39783764 -.00000162  00000-0 -58142-5 0  9994,2 56484  69.9990  82.4993 0002905 269.4469  90.6357 14.98328907 51290,6950.196,96.107,574.08,570.042,0.0
56484.0,STARLINK-6221,PAYLOAD,2024-04-12 04:46:29,14.98332563,0.0002881,69.9992,80.4796,269.1958,90.8871,2.8471e-05,2.47e-06,0.0,0 STARLINK-6221,1 56484U 23064AN  24103.19895366  .00000247  00000-0  28471-4 0  9998,2 56484  69.9992  80.4796 0002881 269.1958  90.8871 14.98332563 51773,6950.185,96.107,574.052,570.048,0.0
56484.0,STARLINK-6221,PAYLOAD,2024-04-12 07:58:45,14.98333515,0.0002882,69.9992,80.1428,269.3253,90.7576,3.7766e-05,3.58e-06,0.0,0 STARLINK-6221,1 56484U 23064AN  24103.33247252  .00000358  00000-0  37766-4 0  9999,2 56484  69.9992  80.1428 0002882 269.3253  90.7576 14.98333515 51435,6950.182,96.107,574.05,570.044,0.0
56484.0,STARLINK-6221,PAYLOAD,2024-04-12 22:23:58,14.98329645,0.000287,69.9994,78.628,268.6866,91.3964,-2.6068e-05,-4.04e-06,0.0,0 STARLINK-6221,1 56484U 23064AN  24103.93331617 -.00000404  00000-0 -26068-4 0  9991,2 56484  69.9994  78.6280 0002870 268.6866  91.3964 14.98329645 51521,6950.194,96.107,574.054,570.064,0.0
56484.0,STARLINK-6221,PAYLOAD,2024-04-13 04:48:31,14.98323205,0.0002723,70.0001,77.9552,260.9162,99.1689,4.9037e-06,-3.4e-07,0.0,0 STARLINK-6221,1 56484U 23064AN  24104.20035946 -.00000034  00000-0  49037-5 0  9998,2 56484  70.0001  77.9552 0002723 260.9162  99.1689 14.98323205 51928,6950.214,96.107,573.971,570.186,0.0
56484.0,STARLINK-6221,PAYLOAD,2024-04-13 08:00:46,14.98328039,0.0003039,69.9994,77.6186,269.8111,90.27,8.418e-06,7e-08,0.0,0 STARLINK-6221,1 56484U 23064AN  24104.33387674  .00000007  00000-0  84180-5 0  9997,2 56484  69.9994  77.6186 0003039 269.8111  90.2700 14.98328039 51587,6950.199,96.107,574.176,569.952,0.0
56484.0,STARLINK-6221,PAYLOAD,2024-04-14 04:50:31,14.98329513,0.0002488,70.0008,75.4316,251.4524,108.6365,-1.1657e-06,-1.07e-06,0.0,0 STARLINK-6221,1 56484U 23064AN  24105.20175557 -.00000107  00000-0 -11657-5 0  9991,2 56484  70.0008  75.4316 0002488 251.4524 108.6365 14.98329513 52073,6950.194,96.107,573.789,570.33,0.0
56484.0,STARLINK-6221,PAYLOAD,2024-04-14 22:27:59,14.9835957,0.0002266,70.0001,73.5784,259.6062,100.4842,-0.00040068,-4.874e-05,0.0,0 STARLINK-6221,1 56484U 23064AN  24105.93611019 -.00004874  00000-0 -40068-3 0  9990,2 56484  70.0001  73.5784 0002266 259.6062 100.4842 14.98359570 51823,6950.101,96.105,573.541,570.392,0.0
56484.0,STARLINK-6221,PAYLOAD,2024-04-15 04:52:32,14.98332169,0.0002663,70.0009,72.9077,246.8787,113.2091,7.8383e-05,8.42e-06,0.0,0 STARLINK-6221,1 56484U 23064AN  24106.20314947  .00000842  00000-0  78383-4 0  9992,2 56484  70.0009  72.9077 0002663 246.8787 113.2091 14.98332169 52220,6950.186,96.107,573.902,570.2,0.0
56484.0,STARLINK-6221,PAYLOAD,2024-04-15 08:04:48,14.98332302,0.0002559,70.0008,72.5696,251.9956,108.0924,8.9477e-05,9.75e-06,0.0,0 STARLINK-6221,1 56484U 23064AN  24106.33666924  .00000975  00000-0  89477-4 0  9994,2 56484  70.0008  72.5696 0002559 251.9956 108.0924 14.98332302 51888,6950.186,96.107,573.829,570.272,0.0
56484.0,STARLINK-6221,PAYLOAD,2024-04-16 04:54:33,14.98331125,0.0002761,70.0002,70.3808,264.0423,96.0422,-8.0424e-06,-1.89e-06,0.0,0 STARLINK-6221,1 56484U 23064AN  24107.20455246 -.00000189  00000-0 -80424-5 0  9997,2 56484  70.0002  70.3808 0002761 264.0423  96.0422 14.98331125 52378,6950.189,96.107,573.973,570.135,0.0
56484.0,STARLINK-6221,PAYLOAD,2024-04-16 14:31:21,14.98341402,0.000274,70.0007,69.3711,263.791,96.2937,-8.0795e-05,-1.057e-05,0.0,0 STARLINK-6221,1 56484U 23064AN  24107.60510669 -.00001057  00000-0 -80795-4 0  9997,2 56484  70.0007  69.3711 0002740 263.7910  96.2937 14.98341402 52077,6950.158,96.106,573.927,570.118,0.0
56484.0,STARLINK-6221,PAYLOAD,2024-04-16 22:32:01,14.98338106,0.0002753,70.0003,68.5298,262.5762,97.5084,2.9431e-05,2.58e-06,0.0,0 STARLINK-6221,1 56484U 23064AN  24107.93890465  .00000258  00000-0  29431-4 0  9998,2 56484  70.0003  68.5298 0002753 262.5762  97.5084 14.98338106 52120,6950.168,96.106,573.946,570.119,0.0
56484.0,STARLINK-6221,PAYLOAD,2024-04-17 04:56:33,14.98342884,0.0002685,70.0004,67.8565,259.7108,100.3748,0.00010125,1.116e-05,0.0,0 STARLINK-6221,1 56484U 23064AN  24108.20593809  .00001116  00000-0  10125-3 0  9994,2 56484  70.0004  67.8565 0002685 259.7108 100.3748 14.98342884 52168,6950.153,96.106,573.884,570.152,0.0
56484.0,STARLINK-6221,PAYLOAD,2024-04-18 03:22:27,14.98315975,0.0002698,70.0011,65.5005,247.3311,112.7563,-0.00011398,-1.452e-05,0.0,0 STARLINK-6221,1 56484U 23064AN  24109.14060181 -.00001452  00000-0 -11398-3 0  9998,2 56484  70.0011  65.5005 0002698 247.3311 112.7563 14.98315975 52661,6950.236,96.108,573.976,570.226,0.0
56484.0,STARLINK-6221,PAYLOAD,2024-04-18 06:34:44,14.98316726,0.0003016,69.9999,65.163,264.4346,95.6469,-0.00016135,-2.017e-05,0.0,0 STARLINK-6221,1 56484U 23064AN  24109.27412430 -.00002017  00000-0 -16135-3 0  9992,2 56484  69.9999  65.1630 0003016 264.4346  95.6469 14.98316726 52328,6950.234,96.108,574.195,570.003,0.0
56484.0,STARLINK-6221,PAYLOAD,2024-04-18 22:36:04,14.98322197,0.0003487,69.999,63.4786,269.1778,90.8982,2.8255e-05,2.44e-06,0.0,0 STARLINK-6221,1 56484U 23064AN  24109.94171800  .00000244  00000-0  28255-4 0  9994,2 56484  69.9990  63.4786 0003487 269.1778  90.8982 14.98322197 52422,6950.217,96.107,574.506,569.658,0.0
56484.0,STARLINK-6221,PAYLOAD,2024-04-19 05:00:35,14.98337369,0.0002632,70.0008,62.8062,259.2557,100.8306,-1.2368e-05,-2.41e-06,0.0,0 STARLINK-6221,1 56484U 23064AN  24110.20874960 -.00000241  00000-0 -12368-4 0  9999,2 56484  70.0008  62.8062 0002632 259.2557 100.8306 14.98337369 52824,6950.17,96.107,573.864,570.206,0.0
56484.0,STARLINK-6221,PAYLOAD,2024-04-19 06:36:43,14.98339108,0.0002492,70.0013,62.6379,248.8146,111.2747,8.8623e-06,1.3e-07,0.0,0 STARLINK-6221,1 56484U 23064AN  24110.27550755  .00000013  00000-0  88623-5 0  9992,2 56484  70.0013  62.6379 0002492 248.8146 111.2747 14.98339108 52470,6950.165,96.106,573.762,570.298,0.0
56484.0,STARLINK-6221,PAYLOAD,2024-04-19 22:38:04,14.983254,0.000257,70.0015,60.9538,265.9432,94.1433,0.00035454,4.139e-05,0.0,0 STARLINK-6221,1 56484U 23064AN  24110.94310512  .00004139  00000-0  35454-3 0  9996,2 56484  70.0015  60.9538 0002570 265.9432  94.1433 14.98325400 52577,6950.207,96.107,573.858,570.286,0.0
56484.0,STARLINK-6221,PAYLOAD,2024-04-20 05:02:35,14.98338307,0.0002321,70.0021,60.2831,243.2242,116.868,0.00038638,4.521e-05,0.0,0 STARLINK-6221,1 56484U 23064AN  24111.21013548  .00004521  00000-0  38638-3 0  9998,2 56484  70.0021  60.2831 0002321 243.2242 116.8680 14.98338307 52975,6950.167,96.106,573.645,570.419,0.0
56484.0,STARLINK-6221,PAYLOAD,2024-04-20 06:38:43,14.98339306,0.0002338,70.0021,60.1149,245.5334,114.5582,0.00038735,4.533e-05,0.0,0 STARLINK-6221,1 56484U 23064AN  24111.27689456  .00004533  00000-0  38735-3 0  9992,2 56484  70.0021  60.1149 0002338 245.5334 114.5582 14.98339306 52629,6950.164,96.106,573.654,570.404,0.0
56484.0,STARLINK-6221,PAYLOAD,2024-04-20 21:01:43,15.00125312,0.0010376,70.002,58.5965,228.0936,131.934,0.01971,0.00255651,0.0,0 STARLINK-6221,1 56484U 23064AN  24111.87620002  .00255651  00000-0  19710-1 0  9999,2 56484  70.0020  58.5965 0010376 228.0936 131.9340 15.00125312 53079,6944.647,95.992,573.717,559.306,0.0
56484.0,STARLINK-6221,PAYLOAD,2024-04-21 04:00:00,14.98280562,0.0003109,70.0018,57.8683,261.7781,216.2574,0.0040834,0.00048909,0.0,0 STARLINK-6221,1 56484U 23064AN  24112.16667824  .00048909  00000-0  40834-2 0  9993,2 56484  70.0018  57.8683 0003109 261.7781 216.2574 14.98280562 53119,6950.346,96.11,574.372,570.05,0.0
